25479,ORBCOMM FM25,1998,100.3,-1.0,-,45.01,Inactive,0,LEO,Eastern Range Airspace,ORBCOMM,Unknown,Unknown,Pegasus,1 25479U 98053E   24142.86141523  .00002588  00000+0  93580-3 0  9995,2 25479  45.0074 319.4389 0003601  99.1754 260.9501 14.35723932341450,14.35723932,0.0003601,LEO
25480,ORBCOMM FM26,1998,100.34,-1.0,-,45.01,Inactive,0,LEO,Eastern Range Airspace,ORBCOMM,Unknown,Unknown,Pegasus,1 25480U 98053F   24143.49884206  .00002330  00000+0  85678-3 0  9993,2 25480  45.0069 310.5975 0005890 119.8214 240.3219 14.35161354341588,14.35161354,0.000589,LEO
25482,ORBCOMM FM28,1998,100.27,-1.0,-,45.01,Inactive,0,LEO,Eastern Range Airspace,ORBCOMM,Unknown,Unknown,Pegasus,1 25482U 98053H   24141.37186396  .00003546  00000+0  12537-2 0  9998,2 25482  45.0052 265.1717 0004086 153.2079 206.8980 14.36137443341842,14.36137443,0.0004086,LEO
25980,ORBCOMM FM30,1999,100.33,45.0,-,45.03,Inactive,1,LEO,Eastern Range Airspace,ORBCOMM,Commercial,Communications,Pegasus,1 25980U 99065A   24143.04194047  .00002200  00000+0  80948-3 0  9991,2 25980  45.0298 138.2912 0006603 227.7738 132.2550 14.35291572278746,14.35291572,0.0006603,LEO
25481,ORBCOMM FM27,1998,100.3,45.0,+,45.01,Active,1,LEO,Eastern Range Airspace,ORBCOMM,Commercial,Communications,Pegasus,1 25481U 98053G   24141.59711916  .00003220  00000+0  11530-2 0  9994,2 25481  45.0060 325.6746 0000913 196.1614 163.9204 14.35702271341208,14.35702271,9.13e-05,LEO
25982,ORBCOMM FM32,1999,100.4,45.0,+,45.01,Active,1,LEO,Eastern Range Airspace,ORBCOMM,Commercial,Communications,Pegasus,1 25982U 99065C   24142.99708372  .00001799  00000+0  68432-3 0  9994,2 25982  45.0137 146.0754 0006987 250.3886 109.6207 14.34290835278390,14.34290835,0.0006987,LEO
